    CK20U050  2022 04 27.8803  3.755943  0.999377   75.4159  107.3372   97.2706  20220208   8.0  4.0  C/2020 U5 (PANSTARRS)                                    MPEC 2022-C56
    CK20V020  2023 05  8.4966  2.228235  1.001188  162.4023  212.3618  131.6090  20220208   4.9  4.0  C/2020 V2 (ZTF)                                          MPEC 2022-C56
    PK20V030  2021 02  8.6433  6.230182  0.255808  249.3307  198.2630   23.0315  20220208   8.3  4.0  P/2020 V3 (PANSTARRS)                                    MPEC 2021-N06
    PK20V040  2021 07 17.7942  5.148537  0.449427  256.9926  203.4963   14.2429  20220208   9.0  4.0  P/2020 V4 (Rankin)                                       MPEC 2022-C56
    PK20W010  2020 04  5.9368  5.288916  0.265886  264.9135  124.2640   10.7911  20220208  10.0  4.0  P/2020 W1 (Rankin)                                       MPEC 2021-BE3
    CK20W050  2020 11 30.0810  3.364337  1.000759   24.4814   75.4999   88.5833  20220208  15.0  4.0  C/2020 W5 (Lemmon)                                       MPEC 2021-BE3
    PK20X010  2020 07 20.4810  2.872631  0.365510  323.2995   56.0170   31.6945  20220208  13.0  4.0  P/2020 X1 (ATLAS)                                        MPEC 2021-P47
    CK20X020  2020 11 15.8212  3.828001  0.766777  347.3411  105.4519   18.1884  20220208  10.6  4.0  C/2020 X2 (ATLAS)                                        MPEC 2021-U31
    CK20X040  2020 11 17.0424  5.217121  0.877148  140.2874  161.8898   80.6356  20220208   9.0  4.0  C/2020 X4 (Leonard)                                      MPEC 2021-S45
    CK20Y020  2022 06 17.6757  3.132501  0.997277  266.0998   26.5116  101.2966  20220208   6.5  4.0  C/2020 Y2 (ATLAS)                                        MPEC 2022-C56
    CK20Y030  2020 12  3.4385  1.998786  0.986494  342.0220  191.4344   83.1011  20220208  13.5  4.0  C/2020 Y3 (ATLAS)                                        MPEC 2021-R75
    CK21A010  2022 01  3.2990  0.615257  1.000027  225.0926  255.8962  132.6865  20220208   8.5  4.0  C/2021 A1 (Leonard)                                      MPEC 2022-C56
    CK21A020  2021 01 22.5989  1.412663  0.994293  338.8273  125.2328  106.9775  20220208  13.5  4.0  C/2021 A2 (NEOWISE)                                      MPEC 2021-U31
    CK21A040  2021 03 20.0148  1.146250  0.973363  204.6939  307.0960  111.5590  20220208  16.0  4.0  C/2021 A4 (NEOWISE)                                      MPEC 2021-R75
    PK21A050  2020 11 11.9193  2.621058  0.139805   61.1983  328.7680   18.1877  20220208  15.0  4.0  P/2021 A5 (PANSTARRS)                                    MPEC 2021-BE3
    CK21A060  2021 05  4.1897  7.928578  0.999269  351.6960  164.0793   75.6116  20220208   7.0  4.0  C/2021 A6 (PANSTARRS)                                    MPEC 2022-C56
    CK21A070  2021 07 15.2993  1.967578  0.999640  356.0518  154.5181   78.1496  20220208  10.0  4.0  C/2021 A7 (NEOWISE)                                      MPEC 2022-C56
    CK21A090  2023 12  1.3836  7.759689  1.003826  211.4599  314.8430  158.0260  20220208   6.0  4.0  C/2021 A9 (PANSTARRS)                                    MPEC 2022-C56
    CK21A100  2021 03 15.3400  1.270423  0.986998   82.3770  188.3722  151.5724  20220208  19.0  4.0  C/2021 A10 (NEOWISE)                                     MPEC 2021-N06
    CK21B020  2021 05  4.2684  2.512898  0.992856  334.9679  120.5533   38.0911  20220208  14.0  4.0  C/2021 B2 (PANSTARRS)                                    MPEC 2022-C56
    CK21B030  2021 03 10.8802  2.160187  0.938021  293.5548   67.2866  119.4831  20220208  13.5  4.0  C/2021 B3 (NEOWISE)                                      MPEC 2021-N06
    CK21C010  2020 12  7.1015  3.480800  0.999933  336.2990  186.8956  143.0437  20220208  11.5  4.0  C/2021 C1 (Rankin)                                       MPEC 2022-C56
    PK21C020  2021 02 24.1136  4.889758  0.487275   78.7808   66.4805   21.9281  20220208  12.0  4.0  P/2021 C2 (PANSTARRS)                                    MPEC 2021-U31
    CK21C030  2021 02 12.3971  2.276047  0.963899  357.1338  181.9247  122.1644  20220208  14.0  4.0  C/2021 C3 (Catalina)                                     MPEC 2021-N06
    CK21C040  2021 01 17.0954  4.504049  0.999706  320.2311  194.2755  132.8486  20220208   9.0  4.0  C/2021 C4 (ATLAS)                                        MPEC 2022-A21
    CK21C050  2023 02 11.0439  3.241802  0.999260  270.9178  323.6901   50.7850  20220208   9.0  4.0  C/2021 C5 (PANSTARRS)                                    MPEC 2022-C56
    CK21C060  2021 11 13.3142  3.271206  1.001654  203.5598  332.1555  164.6257  20220208  12.0  4.0  C/2021 C6 (Lemmon)                                       MPEC 2022-C56
    CK21D010  2021 02 27.6330  0.901850  0.990793   72.2339  311.2693   31.4566  20220208  13.0  4.0  C/2021 D1 (SWAN)                                         MPEC 2021-N06
    CK21D020  2022 02  3.9817  2.946301  1.001448  125.0300  305.6788   83.8306  20220208   9.0  4.0  C/2021 D2 (ZTF)                                          MPEC 2022-C56
    AK21E020  2020 12 10.4652  2.287696  0.990268  342.4527  190.8175  167.4882  20220208  15.0  2.0  A/2021 E2                                                MPEC 2021-N06
    CK21E030  2022 06 11.9064  1.777430  1.000850  228.8453  104.4683  112.5564  20220208   8.5  4.0  C/2021 E3 (ZTF)                                          MPEC 2022-A21
    AK21E040  2022 04 25.3374  4.675998  0.993297   48.2793  171.1734  116.3609  20220208  13.5  2.0  A/2021 E4                                                MPEC 2022-C56
    CK21F010  2022 04  6.8736  0.995486  0.995784  146.8226  203.4515  107.3244  20220208  13.5  4.0  C/2021 F1 (Lemmon-PANSTARRS)                             MPEC 2022-C56
    CK21G010  2021 07 22.1867  3.423577  0.954414  107.4766  270.6973  131.5631  20220208  14.0  4.0  C/2021 G1 (Leonard)                                      MPEC 2021-J72
    CK21G020  2024 09 10.0413  4.978297  0.998713  343.3711  221.1214   48.4730  20220208   5.5  4.0  C/2021 G2 (ATLAS)                                        MPEC 2022-C56
    CK21G030  2021 10 16.5620  5.177997  1.000166   10.3999  147.4053  102.8552  20220208  10.5  4.0  C/2021 G3 (PANSTARRS)                                    MPEC 2022-C56
    PK21H00S  2021 08  6.3808  0.796471  0.810108   46.0854  262.3906   12.1710  20220208  22.0  4.0  P/2021 HS (PANSTARRS)                                    MPEC 2021-Y10
    CK21J010  2021 02 19.4624  1.740776  0.934189  147.3303   88.3223   92.7185  20220208  15.5  4.0  C/2021 J1 (Maury-Attard)                                 MPEC 2022-C56
    CK21J020  2021 09 22.4604  4.706577  0.959868  172.0574   23.3294  156.2091  20220208  12.0  4.0  C/2021 J2 (PANSTARRS)                                    MPEC 2022-C56
    PK21J030  2019 07  5.1236  4.915532  0.450291  125.9669  111.2068   14.5498  20220208   7.0  4.0  P/2021 J3 (ATLAS)                                        MPEC 2021-S45
    CK21K010  2021 05  4.4803  2.497625  0.803434  184.2823  140.9044   16.2758  20220208  11.0  4.0  C/2021 K1 (ATLAS)                                        MPEC 2022-C56
    CK21K020  2021 09  9.2748  5.466749  1.000589  343.3364  282.2482  100.8376  20220208   8.0  4.0  C/2021 K2 (MASTER)                                       MPEC 2021-R75
    CK21K030  2022 02  2.6889  5.229845  1.003291  181.9955  114.4509  134.7767  20220208  10.0  4.0  C/2021 K3 (Catalina)                                     MPEC 2021-U31
    PK21L020  2021 07 24.4717  1.938381  0.521522   51.5235  266.6600   21.0688  20220208  17.0  4.0  P/2021 L2 (Leonard)                                      MPEC 2021-W31
    CK21L030  2022 02 14.0143  8.457342  1.001260   91.6149  344.9683   78.5798  20220208   6.0  4.0  C/2021 L3 (Borisov)                                      MPEC 2021-WD8
    PK21L040  2019 09  3.8077  2.789694  0.118566  234.5845  243.2245   16.9615  20220208  13.5  4.0  P/2021 L4 (PANSTARRS)                                    MPEC 2021-R75
    PK21N010  2021 06  6.5462  0.962372  0.676743   21.1961  301.1656   11.5055  20220208  19.0  4.0  P/2021 N1 (ZTF)                                          MPEC 2021-P47
    PK21N020  2021 11 13.2906  3.796616  0.452371  177.3436  221.7424   13.0629  20220208   9.5  4.0  P/2021 N2 (Fuls)                                         MPEC 2022-C56
    CK21N030  2020 08 19.2227  5.708663  0.964570  304.6422  337.4944   26.7498  20220208   8.5  4.0  C/2021 N3 (PANSTARRS)                                    MPEC 2021-W31
    CK21O010  2021 08 13.9313  0.786843  0.999730   74.4538   41.6064   27.5755  20220208  10.5  4.0  C/2021 O1 (Nishimura)                                    MPEC 2022-A21
    CK21O030  2022 04 21.0469  0.287323  1.000110  299.9905  189.0198   56.7903  20220208  10.5  4.0  C/2021 O3 (PANSTARRS)                                    MPEC 2022-C56
    CK21P010  2022 06  2.0230  4.374206  0.999306   40.4075  359.6749   51.6346  20220208  11.0  4.0  C/2021 P1 (PANSTARRS)                                    MPEC 2022-C56
    CK21P020  2023 01 21.8074  5.071048  0.998800   76.5184   32.0093  150.0311  20220208   9.0  4.0  C/2021 P2 (PANSTARRS)                                    MPEC 2022-C56
    PK21P030  2021 05 30.6959  2.915898  0.339810  334.1639  358.2393   27.1613  20220208  14.0  4.0  P/2021 P3 (PANSTARRS)                                    MPEC 2021-W31
    CK21P040  2022 07 30.3793  1.080446  0.996549  175.8237  348.0953   56.3110  20220208   9.5  4.0  C/2021 P4 (ATLAS)                                        MPEC 2022-C56
    CK21Q030  2022 01 26.0332  5.204769  0.930384  114.0848  307.9032   77.7768  20220208   8.0  4.0  C/2021 Q3 (ATLAS)                                        MPEC 2021-Y10
    CK21Q040  2023 06  9.2413  7.566557  1.003319  146.9143  183.3327   71.4736  20220208   6.0  4.0  C/2021 Q4 (Fuls)                                         MPEC 2021-UA9
